[{"OBJECT_NAME":"STARLINK-35029","OBJECT_ID":"2025-194M","EPOCH":"2026-03-09T14:11:50.511840","MEAN_MOTION":15.05651803,"ECCENTRICITY":0.0002711,"INCLINATION":97.6012,"RA_OF_ASC_NODE":284.3048,"ARG_OF_PERICENTER":90.4361,"MEAN_ANOMALY":269.7176,"EPHEMERIS_TYPE":0,"CLASSIFICATION_TYPE":"U","NORAD_CAT_ID":65445,"ELEMENT_SET_NO":999,"REV_AT_EPOCH":2963,"BSTAR":0.00035762,"MEAN_MOTION_DOT":5.104e-5,"MEAN_MOTION_DDOT":0},{"OBJECT_NAME":"CZ-2C DEB","OBJECT_ID":"2009-061C","EPOCH":"2026-03-09T15:20:14.637120","MEAN_MOTION":14.99171478,"ECCENTRICITY":0.0032615,"INCLINATION":97.8461,"RA_OF_ASC_NODE":101.0533,"ARG_OF_PERICENTER":313.5449,"MEAN_ANOMALY":164.4427,"EPHEMERIS_TYPE":0,"CLASSIFICATION_TYPE":"U","NORAD_CAT_ID":36090,"ELEMENT_SET_NO":999,"REV_AT_EPOCH":86976,"BSTAR":0.0014405,"MEAN_MOTION_DOT":0.00017697,"MEAN_MOTION_DDOT":0}]
